#dP2022 11 26  0  0  0.00000000      96 __u+U ITR00 FIT  IAC
## 2237 518400.00000000   900.00000000 59909 0.0000000000000
+  118   C06C07C08C09C10C11C12C13C14C16C19C20C21C22C23C24C25
+        C26C27C28C29C30C32C33C34C35C36C37C38C39C40C41C42C43
+        C44C45C46E01E02E03E04E05E07E08E09E10E11E12E13E14E15
+        E18E19E21E24E25E26E27E30E31E33E34E36G01G02G03G04G05
+        G06G07G08G09G10G11G12G13G14G15G16G17G18G19G20G21G22
+        G23G24G25G26G27G29G30G31G32J02J03J04R01R02R03R04R05
+        R07R08R09R11R12R13R14R15R17R18R19R20R21R22R24R25  0
++         9  7 11  8  7  7  7 10  8  9  7  7  7  7  8  8  5
++         6  7  7  7  7  7  8  7  6  7  6 10  8  8  6  8  9
++         6  8  7  7  6  7  0  6  7  6  6  6  6  8  7  6  7
++         6  7  7  8  7  6  9  7  6  7  7  8  6  6  7  6  6
++         6  7  6  7  7  6  7  7  7  6  7  7  6  6  6  7  7
++         7  7  8  8  7  7  7  8  6  7  7  9  7  8  7  6  7
++         7  8  9  8  8  7  6  7  7  6  7  7  8  6  6  6  0
%c M  cc GPS ccc cccc cccc cccc cccc ccccc ccccc ccccc ccccc
%c cc cc ccc ccc cccc cccc cccc cccc ccccc ccccc ccccc ccccc
%f  0.0000000  0.000000000  0.00000000000  0.000000000000000
%f  0.0000000  0.000000000  0.00000000000  0.000000000000000
%i    0    0    0    0      0      0      0      0         0
%i    0    0    0    0      0      0      0      0         0
/* INFORMATION & ANALYSIS CENTER (IAC)      ULTRA-RAPID DATA
/* S/V CLOCKS ARE ALIGNED TO GNSS TIME                      
/* G:C1WC2W R:C1PC2P E:C1XC5X C:C2IC6I J:C1CC2S             
/* PCV:IGS14_2233 OL/AL:FES2004  NONE     YN ORB:CoN CLK:CoN
*  2022 11 26  4  0  0.00000000
PC06    223.098135  31608.571335  28022.273769     -7.180905
PC07 -15606.342344  28531.766853 -26865.672037    161.832308
PC08 -12727.882653  40091.414406    100.857346    516.487590
PC09   6759.979312  35337.707699  22766.733972   -797.821020
PC10  -7624.005011  28646.217388 -29833.104020     62.114886
PC11 -11268.701146  10415.866209 -23234.157511   -270.983630
PC12 -22048.587673  -5838.827010 -16044.058191    317.991707
PC13  -6566.927114  40699.849829   8193.757963    142.762746
PC14 -20953.442357  14974.475790  10818.032731    209.419369
PC16  -4438.822912  28304.198601  31207.249368    111.479874
PC19  12432.072016 -17248.098346 -18051.395226   -909.864833
PC20  25333.728435 -11129.180367  -3531.127103    825.916422
PC21 -23917.566570  -2199.865890 -14210.400729   -902.928497
PC22  -8285.604609 -13715.654436 -22855.385338   -773.326145
PC23   4268.137944  24508.567935 -12631.329733   -874.743184
PC24 -16505.143388  11649.112208  19224.403453   -756.825691
PC25  -7464.696866  26617.255844   3705.492630     30.257836
PC26 -15017.733798  -7219.551456  22374.444407    -41.196918
PC27  23199.185380  12802.440990   8756.868772     57.006031
PC28  15656.849730  21662.485524  -8006.376656     40.244947
PC29   1487.138888 -18038.544292  21237.955963     45.517106
PC30  18260.998000  -3601.973852  20794.925983      1.070299
PC32  23871.741901   2112.085433  14305.044366   -704.386574
PC33 -12438.124162  17345.161348  17979.768973   -904.564069
PC34 -17481.912197   4704.031540 -21238.035846     47.557154
PC35 -15201.295060 -21395.118668   9433.061780    105.241372
PC36   8463.259347 -26247.139717  -4293.813837   -813.026378
PC37  14394.725736   8978.768967 -22141.889262   -905.805831
PC38 -16156.425407  38130.067959  -7388.425631     40.721092
PC39  -7167.478091  25431.110583  32915.864292     -0.940328
PC40 -23118.656865  22307.750544 -27418.449458     -8.885373
PC41   7712.524433  14002.747666  22919.291332   -315.002170
PC42 -25744.770253  10527.657084   2390.556444   -734.251261
PC43  -2364.406011  17719.946049 -21437.132039     26.934016
PC44 -23665.043345 -12026.882640  -8566.392484    125.688592
PC45  -4434.993438 -24319.443650  12974.073644    -27.054470
PC46  16104.211245 -13604.606230 -18309.899963    -15.487625
PE01  22963.374164  -8096.805553 -16837.221794   -570.454632
PE02 -22996.683984   8305.098632  16668.266933      4.867210
PE03 -28466.344211   -247.345357   8112.519714   -623.685592
PE04      0.000000      0.000000      0.000000 999999.999999
PE05 -24480.691772 -12853.760634 -10566.494179   -121.022332
PE07   6311.138765  17781.408280  22803.167129     -2.278853
PE08 -15948.283422  12121.198046  21786.539595   -638.509122
PE09  -6151.488657 -17636.005554 -22970.043261   -742.332226
PE10   1113.051417 -25922.491112  14255.095468   -493.450865
PE11  -6289.861260 -28581.150417   4419.458158   1152.292669
PE12   7895.408122 -19450.119763  20867.764185   -297.406393
PE13   5756.375701  28541.439936  -5319.871683    430.533772
PE14 -28908.174748  -9887.234782   -647.497952     67.235755
PE15  -7968.392383  19205.725758 -21055.551518    704.998059
PE18  19698.737109  15003.830312  -8411.724253   -699.820083
PE19  28967.115737   2228.373733  -5692.014349  -3900.679979
PE21  13996.187443   9326.588144 -24356.481460   -496.793141
PE24   4564.423859 -23147.244850  17884.048663   -967.958321
PE25 -13750.007922  -9628.858909  24387.611197   -593.533711
PE26  16263.806945  20367.199603  14029.302601  -1888.324253
PE27  -3598.656731  22783.176494 -18536.711651   -448.505350
PE30 -19384.871437  22326.151792  -1137.766827  -1028.575979
PE31  18902.872887 -22709.985627   1874.875045   -509.105352
PE33  16902.968144   1401.296827  24266.688422   -455.605624
PE34 -16869.955341  -1190.215505 -24295.648576    -16.496300
PE36 -15951.584198 -21055.740327 -13349.569733   -466.328958
PG01  14198.668756  -2716.715817  21973.350561    246.364478
PG02 -13117.663576   7227.412992 -21319.341174   -636.097077
PG03  21697.029004  -9858.066599  11493.023979   -374.279109
PG04  23680.546879   -975.808622 -12095.118769    -79.801795
PG05 -17409.969457  -2126.488742 -20150.984258   -105.722095
PG06  -5930.305222 -25844.835398     79.692984    526.945553
PG07   8134.469996 -18172.962145 -16909.700942    282.718938
PG08  26046.733747   5961.862503   1504.361736    -95.641362
PG09  15227.651551 -10060.944819 -19393.019039   -263.043500
PG10  -6968.511065  20691.131232  15058.257716    -13.471835
PG11 -12019.941957 -20636.111072 -11657.401996    -45.866239
PG12 -22277.509800   7784.004500  11815.447352   -308.660682
PG13 -22526.462074 -13590.591123  -4496.989182    431.244129
PG14   9603.415675 -20960.558197  13091.320388    -77.731873
PG15 -26467.707195  -3246.568165   1146.335245     -9.271715
PG16  13963.812449   7869.719869 -21534.336988   -526.758143
PG17   1574.608697 -15314.494461  22078.720841    681.027432
PG18  -6756.706600  20034.073234 -15986.325735    -35.849166
PG19 -10839.507173 -17085.158326  17112.154968    242.343538
PG20  -8571.071691 -13789.659945 -21034.713715    467.609133
PG21  16990.096647   6473.245497  20212.534521    155.246215
PG22  13311.930709  17095.405159  15903.778211    372.180403
PG23 -15653.443123  20725.920293   5180.500381     -0.727948
PG24 -16432.902691  -1278.627571  20556.383194     43.046744
PG25 -20212.052573  16691.793874   2890.819376    396.232236
PG26   4916.745423  16544.305027 -20201.824900    236.859943
PG27  21512.926487  13027.211867  -9371.809442    169.124757
PG29 -17491.039964   6892.510999 -18835.153919   -569.787055
PG30    115.635356 -25254.291981  -7703.673113   -536.287042
PG31   6737.375444  25377.756820  -1765.813737   -201.360056
PG32   2741.526468  16186.988926  21067.226946   -308.688889
PJ02 -34632.741398  24152.043006   5372.605974     -0.191633
PJ03 -20631.950497  21544.358212 -25173.526068     -5.365376
PJ04 -28064.808813  31236.773607  11066.144769    113.730289
PR01 -24920.844410   5106.606672   1919.029615     18.514600
PR02 -13788.553169  10673.480749  18623.302624    -23.369310
PR03   5070.885188  10208.479417  22863.292282     67.955447
PR04  20648.491167   4005.613319  14466.984571    166.303833
PR05  25102.772044  -4225.647726  -1870.130051    103.535994
PR07  -5786.009172 -10026.160057 -22691.572123     44.988266
PR08 -20757.301345  -3875.530505 -14232.158571    -68.259273
PR09  10251.086044 -23114.198718  -3038.987713     89.647596
PR11  -8195.313086  -8523.014924  22609.907497     18.686515
PR12 -13811.601829  10969.252972  18442.486865     23.168255
PR13 -11003.654298  22527.489960   4671.678609    -29.292625
PR14  -1220.518826  21465.354338 -13727.095096     24.093006
PR15   8706.229751   7616.456698 -22716.317040     92.740397
PR17  11098.225394  21067.031876  -9073.935752    581.461190
PR18  17346.742838  17082.610090   7710.602441     53.832998
PR19  14965.058690   5728.811778  19849.413134   -212.317552
PR20   2720.011125 -12871.639367  21859.763668    -82.827726
PR21 -11971.272536 -21245.379749   7543.460221   -352.646151
PR22 -16873.018732 -17207.493825  -8314.319490     19.655450
PR24  -2157.382873  13706.664010 -21376.230932    128.827100
PR25  -9699.816854 -21640.083621   9437.372516     47.299823
EOF
